[{"OBJECT_NAME":"STARLINK-32183","OBJECT_ID":"2024-144J","EPOCH":"2026-03-09T17:21:31.622688","MEAN_MOTION":15.30201447,"ECCENTRICITY":9.264e-5,"INCLINATION":53.1613,"RA_OF_ASC_NODE":217.0151,"ARG_OF_PERICENTER":121.7532,"MEAN_ANOMALY":238.3559,"EPHEMERIS_TYPE":0,"CLASSIFICATION_TYPE":"U","NORAD_CAT_ID":60433,"ELEMENT_SET_NO":999,"REV_AT_EPOCH":8931,"BSTAR":-7.1841283e-5,"MEAN_MOTION_DOT":-2.486e-5,"MEAN_MOTION_DDOT":0},{"OBJECT_NAME":"HAWK-11B","OBJECT_ID":"2024-247C","EPOCH":"2026-03-09T10:44:06.809856","MEAN_MOTION":15.2884707,"ECCENTRICITY":0.00046902,"INCLINATION":45.0161,"RA_OF_ASC_NODE":115.761,"ARG_OF_PERICENTER":333.0326,"MEAN_ANOMALY":27.0314,"EPHEMERIS_TYPE":0,"CLASSIFICATION_TYPE":"U","NORAD_CAT_ID":62379,"ELEMENT_SET_NO":999,"REV_AT_EPOCH":6773,"BSTAR":0.00032841927,"MEAN_MOTION_DOT":9.093e-5,"MEAN_MOTION_DDOT":0}]
